[{"OBJECT_NAME":"SUOMI-100","OBJECT_ID":"2018-099AY","EPOCH":"2026-03-09T16:23:06.300384","MEAN_MOTION":15.25995383,"ECCENTRICITY":0.00089691,"INCLINATION":97.4315,"RA_OF_ASC_NODE":129.5602,"ARG_OF_PERICENTER":269.9465,"MEAN_ANOMALY":90.0745,"EPHEMERIS_TYPE":0,"CLASSIFICATION_TYPE":"U","NORAD_CAT_ID":43804,"ELEMENT_SET_NO":999,"REV_AT_EPOCH":39823,"BSTAR":0.00054773118,"MEAN_MOTION_DOT":0.00014037,"MEAN_MOTION_DDOT":0},{"OBJECT_NAME":"STARLINK-30517","OBJECT_ID":"2023-153E","EPOCH":"2026-03-09T22:00:01.999584","MEAN_MOTION":15.26715398,"ECCENTRICITY":0.00014756,"INCLINATION":43.0005,"RA_OF_ASC_NODE":65.9087,"ARG_OF_PERICENTER":252.6066,"MEAN_ANOMALY":315.7232,"EPHEMERIS_TYPE":0,"CLASSIFICATION_TYPE":"U","NORAD_CAT_ID":57995,"ELEMENT_SET_NO":999,"REV_AT_EPOCH":578,"BSTAR":0.0015549863,"MEAN_MOTION_DOT":0.00041655,"MEAN_MOTION_DDOT":0}]
